COMMENT,ORIGINATOR,NORAD_CAT_ID,OBJECT_NAME,OBJECT_TYPE,CLASSIFICATION_TYPE,INTLDES,EPOCH,EPOCH_MICROSECONDS,MEAN_MOTION,ECCENTRICITY,INCLINATION,RA_OF_ASC_NODE,ARG_OF_PERICENTER,MEAN_ANOMALY,EPHEMERIS_TYPE,ELEMENT_SET_NO,REV_AT_EPOCH,BSTAR,MEAN_MOTION_DOT,MEAN_MOTION_DDOT,FILE,TLE_LINE0,TLE_LINE1,TLE_LINE2,OBJECT_ID,OBJECT_NUMBER,SEMIMAJOR_AXIS,PERIOD,APOGEE,PERIGEE,DECAYED,date
GENERATED VIA SPACETRACK.ORG API,18 SPCS,48896,SPACEBEE-105,PAYLOAD,U,21059T,2023/3/24 14:06,252960,15.2618403,0.0008061,97.5832,218.7506,203.9893,156.0971,0,999,9646,0.0026582,0.00069286,0,3869696,0 SPACEBEE-105,1 48896U 21059T   23083.58816265  .00069286  00000-0  26582-2 0  9995,2 48896  97.5832 218.7506 0008061 203.9893 156.0971 15.26184030 96463,2021-059T,48896,6865.369,94.353,492.768,481.7,0,
GENERATED VIA SPACETRACK.ORG API,18 SPCS,48896,SPACEBEE-105,PAYLOAD,U,21059T,2023/3/24 20:24,377856,15.26204417,0.0008006,97.5831,219.0169,203.1335,156.9544,0,999,9650,0.0016708,0.00043397,0,3869925,0 SPACEBEE-105,1 48896U 21059T   23083.85042104  .00043397  00000-0  16708-2 0  9992,2 48896  97.5831 219.0169 0008006 203.1335 156.9544 15.26204417 96505,2021-059T,48896,6865.308,94.352,492.67,481.677,0,
GENERATED VIA SPACETRACK.ORG API,18 SPCS,48896,SPACEBEE-105,PAYLOAD,U,21059T,2023/3/24 21:59,90176,15.26210844,0.0008013,97.5831,219.0833,202.9175,157.1706,0,999,9651,0.0016353,0.00042477,0,3870109,0 SPACEBEE-105,1 48896U 21059T   23083.91598484  .00042477  00000-0  16353-2 0  9990,2 48896  97.5831 219.0833 0008013 202.9175 157.1706 15.26210844 96515,2021-059T,48896,6865.289,94.351,492.655,481.653,0,
GENERATED VIA SPACETRACK.ORG API,18 SPCS,48896,SPACEBEE-105,PAYLOAD,U,21059T,2023/3/25 21:35,184704,15.26297613,0.0008003,97.5832,220.0811,199.2659,160.8277,0,999,9666,0.0017131,0.0004463,0,3871104,0 SPACEBEE-105,1 48896U 21059T   23084.89941186  .00044630  00000-0  17131-2 0  9997,2 48896  97.5832 220.0811 0008003 199.2659 160.8277 15.26297613 96667,2021-059T,48896,6865.029,94.346,492.388,481.4,0,
GENERATED VIA SPACETRACK.ORG API,18 SPCS,48896,SPACEBEE-105,PAYLOAD,U,21059T,2023/3/25 21:35,184704,15.26297613,0.0008003,97.5832,220.0811,199.2659,160.8277,0,999,9666,0.0017131,0.0004463,0,3871207,0 SPACEBEE-105,1 48896U 21059T   23084.89941186  .00044630  00000-0  17131-2 0  9997,2 48896  97.5832 220.0811 0008003 199.2659 160.8277 15.26297613 96667,2021-059T,48896,6865.029,94.346,492.388,481.4,0,
GENERATED VIA SPACETRACK.ORG API,18 SPCS,48896,SPACEBEE-105,PAYLOAD,U,21059T,2023/3/26 21:11,831360,15.26371951,0.000804,97.5831,221.0788,196.3255,163.7725,0,999,9681,0.0013802,0.00035982,0,3871964,0 SPACEBEE-105,1 48896U 21059T   23085.88278740  .00035982  00000-0  13802-2 0  9997,2 48896  97.5831 221.0788 0008040 196.3255 163.7725 15.26371951 96816,2021-059T,48896,6864.806,94.341,492.19,481.152,0,
GENERATED VIA SPACETRACK.ORG API,18 SPCS,48896,SPACEBEE-105,PAYLOAD,U,21059T,2023/3/27 3:28,84320,15.26392554,0.000806,97.5831,221.345,195.5427,164.5565,0,999,9685,0.0014593,0.00038083,0,3872072,0 SPACEBEE-105,1 48896U 21059T   23086.14501255  .00038083  00000-0  14593-2 0  9990,2 48896  97.5831 221.3450 0008060 195.5427 164.5565 15.26392554 96856,2021-059T,48896,6864.744,94.34,492.142,481.076,0,
GENERATED VIA SPACETRACK.ORG API,18 SPCS,48896,SPACEBEE-105,PAYLOAD,U,21059T,2023/3/27 14:29,836448,15.26427852,0.0008079,97.583,221.8107,194.118,165.9834,0,999,9692,0.001458,0.0003809,0,3872569,0 SPACEBEE-105,1 48896U 21059T   23086.60389857  .00038090  00000-0  14580-2 0  9997,2 48896  97.5830 221.8107 0008079 194.1180 165.9834 15.26427852 96922,2021-059T,48896,6864.638,94.338,492.049,480.957,0,
GENERATED VIA SPACETRACK.ORG API,18 SPCS,48896,SPACEBEE-105,PAYLOAD,U,21059T,2023/3/27 22:21,102240,15.26453041,0.0008076,97.583,222.1435,193.416,166.6865,0,999,9697,0.001429,0.00037355,0,3872915,0 SPACEBEE-105,1 48896U 21059T   23086.93166785  .00037355  00000-0  14290-2 0  9997,2 48896  97.5830 222.1435 0008076 193.4160 166.6865 15.26453041 96973,2021-059T,48896,6864.563,94.336,491.972,480.884,0,
GENERATED VIA SPACETRACK.ORG API,18 SPCS,48896,SPACEBEE-105,PAYLOAD,U,21059T,2023/3/28 7:47,538112,15.26486471,0.0008084,97.5829,222.5427,192.3053,167.7989,0,999,9703,0.0015305,0.00040069,0,3873334,0 SPACEBEE-105,1 48896U 21059T   23087.32498308  .00040069  00000-0  15305-2 0  9994,2 48896  97.5829 222.5427 0008084 192.3053 167.7989 15.26486471 97034,2021-059T,48896,6864.462,94.334,491.877,480.778,0,
GENERATED VIA SPACETRACK.ORG API,18 SPCS,48896,SPACEBEE-105,PAYLOAD,U,21059T,2023/3/28 14:05,114048,15.26508989,0.0008051,97.583,222.8089,191.0919,169.0142,0,999,9707,0.0015944,0.00041783,0,3873565,0 SPACEBEE-105,1 48896U 21059T   23087.58718882  .00041783  00000-0  15944-2 0  9997,2 48896  97.5830 222.8089 0008051 191.0919 169.0142 15.26508989 97073,2021-059T,48896,6864.395,94.333,491.786,480.733,0,
GENERATED VIA SPACETRACK.ORG API,18 SPCS,48896,SPACEBEE-105,PAYLOAD,U,21059T,2023/3/28 20:23,317600,15.26534352,0.0008027,97.583,223.0752,190.1862,169.9215,0,999,9711,0.0016702,0.00043818,0,3873921,0 SPACEBEE-105,1 48896U 21059T   23087.84939025  .00043818  00000-0  16702-2 0  9994,2 48896  97.5830 223.0752 0008027 190.1862 169.9215 15.26534352 97111,2021-059T,48896,6864.319,94.331,491.694,480.674,0,
GENERATED VIA SPACETRACK.ORG API,18 SPCS,48896,SPACEBEE-105,PAYLOAD,U,21059T,2023/3/29 7:23,343296,15.26574832,0.0007991,97.5829,223.541,188.8283,171.2816,0,999,9718,0.001683,0.0004421,0,3874323,0 SPACEBEE-105,1 48896U 21059T   23088.30823314  .00044210  00000-0  16830-2 0  9998,2 48896  97.5829 223.5410 0007991 188.8283 171.2816 15.26574832 97182,2021-059T,48896,6864.198,94.329,491.548,480.577,0,
GENERATED VIA SPACETRACK.ORG API,18 SPCS,48896,SPACEBEE-105,PAYLOAD,U,21059T,2023/3/29 7:23,343296,15.26574832,0.0007991,97.5829,223.541,188.8283,171.2816,0,999,9718,0.001683,0.0004421,0,3874492,0 SPACEBEE-105,1 48896U 21059T   23088.30823314  .00044210  00000-0  16830-2 0  9998,2 48896  97.5829 223.5410 0007991 188.8283 171.2816 15.26574832 97182,2021-059T,48896,6864.198,94.329,491.548,480.577,0,
GENERATED VIA SPACETRACK.ORG API,18 SPCS,48896,SPACEBEE-105,PAYLOAD,U,21059T,2023/3/30 8:34,188128,15.2667162,0.000795,97.5826,224.6059,185.4692,174.6461,0,999,9734,0.0017601,0.00046387,0,3875224,0 SPACEBEE-105,1 48896U 21059T   23089.35696977  .00046387  00000-0  17601-2 0  9991,2 48896  97.5826 224.6059 0007950 185.4692 174.6461 15.26671620 97346,2021-059T,48896,6863.907,94.323,491.229,480.316,0,
GENERATED VIA SPACETRACK.ORG API,18 SPCS,48896,SPACEBEE-105,PAYLOAD,U,21059T,2023/3/30 8:34,188128,15.2667162,0.000795,97.5826,224.6059,185.4692,174.6461,0,999,9734,0.0017601,0.00046387,0,3875726,0 SPACEBEE-105,1 48896U 21059T   23089.35696977  .00046387  00000-0  17601-2 0  9991,2 48896  97.5826 224.6059 0007950 185.4692 174.6461 15.26671620 97346,2021-059T,48896,6863.907,94.323,491.229,480.316,0,
GENERATED VIA SPACETRACK.ORG API,18 SPCS,48896,SPACEBEE-105,PAYLOAD,U,21059T,2023/3/31 8:09,506080,15.26769855,0.000795,97.5829,225.6046,182.0983,178.0223,0,999,9749,0.0019566,0.00051764,0,3876498,0 SPACEBEE-105,1 48896U 21059T   23090.34009845  .00051764  00000-0  19566-2 0  9991,2 48896  97.5829 225.6046 0007950 182.0983 178.0223 15.26769855 97490,2021-059T,48896,6863.613,94.317,490.935,480.021,0,
GENERATED VIA SPACETRACK.ORG API,18 SPCS,48896,SPACEBEE-105,PAYLOAD,U,21059T,2023/4/1 7:45,588192,15.26858764,0.0007975,97.5828,226.6031,179.0141,181.1115,0,999,9764,0.0017462,0.0004628,0,3877056,0 SPACEBEE-105,1 48896U 21059T   23091.32316653  .00046280  00000-0  17462-2 0  9998,2 48896  97.5828 226.6031 0007975 179.0141 181.1115 15.26858764 97643,2021-059T,48896,6863.347,94.311,490.685,479.738,0,
GENERATED VIA SPACETRACK.ORG API,18 SPCS,48896,SPACEBEE-105,PAYLOAD,U,21059T,2023/4/1 7:45,588192,15.26858764,0.0007975,97.5828,226.6031,179.0141,181.1115,0,999,9764,0.0017462,0.0004628,0,3877270,0 SPACEBEE-105,1 48896U 21059T   23091.32316653  .00046280  00000-0  17462-2 0  9998,2 48896  97.5828 226.6031 0007975 179.0141 181.1115 15.26858764 97643,2021-059T,48896,6863.347,94.311,490.685,479.738,0,
GENERATED VIA SPACETRACK.ORG API,18 SPCS,48896,SPACEBEE-105,PAYLOAD,U,21059T,2023/4/1 20:20,451040,15.26903515,0.0007935,97.5831,227.1357,177.2035,182.9249,0,999,9772,0.0016966,0.00045016,0,3877516,0 SPACEBEE-105,1 48896U 21059T   23091.84744735  .00045016  00000-0  16966-2 0  9995,2 48896  97.5831 227.1357 0007935 177.2035 182.9249 15.26903515 97723,2021-059T,48896,6863.212,94.309,490.523,479.632,0,
GENERATED VIA SPACETRACK.ORG API,18 SPCS,48896,SPACEBEE-105,PAYLOAD,U,21059T,2023/4/2 8:55,952224,15.26949838,0.0007929,97.5833,227.6682,175.1979,184.9337,0,999,9780,0.0017485,0.0004647,0,3877931,0 SPACEBEE-105,1 48896U 21059T   23092.37171241  .00046470  00000-0  17485-2 0  9992,2 48896  97.5833 227.6682 0007929 175.1979 184.9337 15.26949838 97805,2021-059T,48896,6863.074,94.306,490.38,479.497,0,
GENERATED VIA SPACETRACK.ORG API,18 SPCS,48896,SPACEBEE-105,PAYLOAD,U,21059T,2023/4/2 8:55,952224,15.26949838,0.0007929,97.5833,227.6682,175.1979,184.9337,0,999,9780,0.0017485,0.0004647,0,3878126,0 SPACEBEE-105,1 48896U 21059T   23092.37171241  .00046470  00000-0  17485-2 0  9992,2 48896  97.5833 227.6682 0007929 175.1979 184.9337 15.26949838 97805,2021-059T,48896,6863.074,94.306,490.38,479.497,0,
GENERATED VIA SPACETRACK.ORG API,18 SPCS,48896,SPACEBEE-105,PAYLOAD,U,21059T,2023/4/2 21:30,134944,15.26987265,0.0007923,97.5835,228.2008,173.4419,186.6925,0,999,9788,0.0013531,0.00035934,0,3878419,0 SPACEBEE-105,1 48896U 21059T   23092.89596221  .00035934  00000-0  13531-2 0  9999,2 48896  97.5835 228.2008 0007923 173.4419 186.6925 15.26987265 97886,2021-059T,48896,6862.962,94.303,490.264,479.389,0,
